*******************************************************************************
Ephemeris / WWW_USER Tue Mar 27 22:07:35 2018 Pasadena, USA      / Horizons    
*******************************************************************************
Target body name: 1 Ceres                         {source: JPL#34}
Center body name: Solar System Barycenter (0)     {source: DE431}
Center-site name: BODY CENTER
*******************************************************************************
Start time      : A.D. 2018-Feb-08 00:00:00.0000 TDB
Stop  time      : A.D. 2023-Feb-08 00:00:00.0000 TDB
Step-size       : 7200 minutes
*******************************************************************************
Center geodetic : 0.00000000,0.00000000,0.0000000 {E-lon(deg),Lat(deg),Alt(km)}
Center cylindric: 0.00000000,0.00000000,0.0000000 {E-lon(deg),Dxy(km),Dz(km)}
Center radii    : (undefined)                                                  
Small perturbers: Yes                             {source: SB431-N16}
Output units    : AU-D                                                         
Output type     : GEOMETRIC cartesian states
Output format   : 2 (position and velocity)
Reference frame : ICRF/J2000.0                                                 
Coordinate systm: Ecliptic and Mean Equinox of Reference Epoch                 
*******************************************************************************
Initial IAU76/J2000 heliocentric ecliptic osculating elements (au, days, deg.):
  EPOCH=  2449731.5 ! 1995-Jan-14.00 (TDB)         Residual RMS= .3289         
   EC= .07610292126891821  QR= 2.556624726195814   TP= 2449823.0922807939      
   OM= 80.65851514365535   W=  71.44921526124109   IN= 10.60069567603618       
  Equivalent ICRF heliocentric equatorial cartesian coordinates (au, au/d):
   X=-1.595314070299652E+00  Y= 1.679592434318194E+00  Z= 1.115015709161572E+00
  VX=-8.276811304306792E-03 VY=-7.202858709771250E-03 VZ=-1.698003095770422E-03
Asteroid physical parameters (km, seconds, rotational period in hours):        
   GM= 62.6284             RAD= 469.7              ROTPER= 9.07417             
   H= 3.34                 G= .120                 B-V= .713                   
                           ALBEDO= .090            STYP= C                     
*******************************************************************************
JDTDB
   X     Y     Z
   VX    VY    VZ
*******************************************************************************
$$SOE
2458712.500000000 = A.D. 2019-Aug-17 00:00:00.0000 TDB 
  -3.210588897940627E-01 -2.799927820294699E+00 -2.972758725674720E-02
   9.777125515581821E-03 -1.841265629523795E-03 -1.861819241159843E-03
2458717.500000000 = A.D. 2019-Aug-22 00:00:00.0000 TDB 
  -2.721238313020981E-01 -2.808674582379673E+00 -3.903129399664453E-02
   9.796350762985592E-03 -1.657464997123617E-03 -1.859563289025243E-03
2458722.500000000 = A.D. 2019-Aug-27 00:00:00.0000 TDB 
  -2.231008366164355E-01 -2.816502774769079E+00 -4.832222304474489E-02
   9.812303362803405E-03 -1.473847034528157E-03 -1.856709078968952E-03
2458727.500000000 = A.D. 2019-Sep-01 00:00:00.0000 TDB 
  -1.740062178434144E-01 -2.823413449259363E+00 -5.759739691364508E-02
   9.825003883659656E-03 -1.290466960636431E-03 -1.853262148531711E-03
2458732.500000000 = A.D. 2019-Sep-06 00:00:00.0000 TDB 
  -1.248561825337675E-01 -2.829407931344236E+00 -6.685386604859118E-02
   9.834473573733333E-03 -1.107379036260971E-03 -1.849228132251152E-03
2458737.500000000 = A.D. 2019-Sep-11 00:00:00.0000 TDB 
  -7.566683036574927E-02 -2.834487815437297E+00 -7.608870929788036E-02
   9.840734328532750E-03 -9.246365695362058E-04 -1.844612755855862E-03
2458742.500000000 = A.D. 2019-Sep-16 00:00:00.0000 TDB 
  -2.645414998739365E-02 -2.838654960124330E+00 -8.529903435463308E-02
   9.843808659465825E-03 -7.422919223484864E-04 -1.839421830618609E-03
2458747.500000000 = A.D. 2019-Sep-21 00:00:00.0000 TDB 
   2.276598398608518E-02 -2.841911483449934E+00 -9.448197817073462E-02
   9.843719663217492E-03 -5.603965176181704E-04 -1.833661247873106E-03
2458752.500000000 = A.D. 2019-Sep-26 00:00:00.0000 TDB 
   7.197781382384866E-02 -2.844259758242525E+00 -1.036347073437838E-01
   9.840490991957038E-03 -3.790008473555326E-04 -1.827336973698744E-03
2458757.500000000 = A.D. 2019-Oct-01 00:00:00.0000 TDB 
   1.211657013841009E-01 -2.845702407481445E+00 -1.127544184778855E-01
   9.834146824372775E-03 -1.981544814411881E-04 -1.820455043775828E-03
2458762.500000000 = A.D. 2019-Oct-06 00:00:00.0000 TDB 
   1.703141306759621E-01 -2.846242299709659E+00 -1.218383385191532E-01
   9.824711837516919E-03 -1.790607706970944E-05 -1.813021558413391E-03
2458767.500000000 = A.D. 2019-Oct-11 00:00:00.0000 TDB 
   2.194077102825676E-01 -2.845882544495171E+00 -1.308837250667878E-01
   9.812211179451172E-03  1.616966112242190E-04 -1.805042677751928E-03
2458772.500000000 = A.D. 2019-Oct-16 00:00:00.0000 TDB 
   2.684311756494099E-01 -2.844626487943860E+00 -1.398878666606069E-01
   9.796670442701045E-03  3.406067210261799E-04 -1.796524617142663E-03
2458777.500000000 = A.D. 2019-Oct-21 00:00:00.0000 TDB 
   3.173693912419878E-01 -2.842477708266215E+00 -1.488480830459128E-01
   9.778115638522484E-03  5.187782710339951E-04 -1.787473642701772E-03
2458782.500000000 = A.D. 2019-Oct-26 00:00:00.0000 TDB 
   3.662073525767703E-01 -2.839440011400245E+00 -1.577617254165503E-01
   9.756573171944779E-03  6.961661495999979E-04 -1.777896067028238E-03
2458787.500000000 = A.D. 2019-Oct-31 00:00:00.0000 TDB 
   4.149301881291800E-01 -2.835517426692643E+00 -1.666261766369290E-01
   9.732069817543964E-03  8.727261029017422E-04 -1.767798245072691E-03
2458792.500000000 = A.D. 2019-Nov-05 00:00:00.0000 TDB 
   4.635231611221754E-01 -2.830714202639732E+00 -1.754388514437245E-01
   9.704632695892241E-03  1.048414722887859E-03 -1.757186570133602E-03
2458797.500000000 = A.D. 2019-Nov-10 00:00:00.0000 TDB 
   5.119716711989116E-01 -2.825034802688982E+00 -1.841971966278605E-01
   9.674289250764414E-03  1.223189435125254E-03 -1.746067469974820E-03
2458802.500000000 = A.D. 2019-Nov-15 00:00:00.0000 TDB 
   5.602612559835319E-01 -2.818483901101327E+00 -1.928986911973810E-01
   9.641067227203188E-03  1.397008486629904E-03 -1.734447403062741E-03
2458807.500000000 = A.D. 2019-Nov-20 00:00:00.0000 TDB 
   6.083775925346701E-01 -2.811066378874357E+00 -2.015408465218205E-01
   9.604994650553342E-03  1.569830933701628E-03 -1.722332854935716E-03
2458812.500000000 = A.D. 2019-Nov-25 00:00:00.0000 TDB 
   6.563064986967494E-01 -2.802787319726248E+00 -2.101212064588078E-01
   9.566099806565788E-03  1.741616629773642E-03 -1.709730334726654E-03
2458817.500000000 = A.D. 2019-Nov-30 00:00:00.0000 TDB 
   7.040339343547253E-01 -2.793652006140785E+00 -2.186373474637212E-01
   9.524411222683613E-03  1.912326213079464E-03 -1.696646371871506E-03
2458822.500000000 = A.D. 2019-Dec-05 00:00:00.0000 TDB 
   7.515460025981666E-01 -2.783665915475309E+00 -2.270868786834160E-01
   9.479957650461527E-03  2.081921093749589E-03 -1.683087513030119E-03
2458827.500000000 = A.D. 2019-Dec-10 00:00:00.0000 TDB 
   7.988289507997681E-01 -2.772834716135002E+00 -2.354674420350884E-01
   9.432768048873875E-03  2.250363440197560E-03 -1.669060319216868E-03
2458832.500000000 = A.D. 2019-Dec-15 00:00:00.0000 TDB 
   8.458691716121565E-01 -2.761164263816645E+00 -2.437767122712705E-01
   9.382871568300926E-03  2.417616164983575E-03 -1.654571363119729E-03
2458837.500000000 = A.D. 2019-Dec-20 00:00:00.0000 TDB 
   8.926532038861461E-01 -2.748660597823852E+00 -2.520123970318492E-01
   9.330297535119917E-03  2.583642910398304E-03 -1.639627226586884E-03
2458842.500000000 = A.D. 2019-Dec-25 00:00:00.0000 TDB 
   9.391677335134698E-01 -2.735329937454721E+00 -2.601722368839056E-01
   9.275075436906107E-03  2.748408033932514E-03 -1.624234498266089E-03
2458847.500000000 = A.D. 2019-Dec-30 00:00:00.0000 TDB 
   9.853995941970869E-01 -2.721178678462208E+00 -2.682540053501081E-01
   9.217234908267927E-03  2.911876593729119E-03 -1.608399771386927E-03
2458852.500000000 = A.D. 2020-Jan-04 00:00:00.0000 TDB 
   1.031335768152281E+00 -2.706213389587164E+00 -2.762555089263637E-01
   9.156805717327285E-03  3.074014334075993E-03 -1.592129641678942E-03
2458857.500000000 = A.D. 2020-Jan-09 00:00:00.0000 TDB 
   1.076963386741772E+00 -2.690440809163682E+00 -2.841745870893830E-01
   9.093817752845344E-03  3.234787670998001E-03 -1.575430705418867E-03
2458862.500000000 = A.D. 2020-Jan-14 00:00:00.0000 TDB 
   1.122269731048085E+00 -2.673867841796118E+00 -2.920091122947905E-01
   9.028301012000885E-03  3.394163678006945E-03 -1.558309557601270E-03
2458867.500000000 = A.D. 2020-Jan-19 00:00:00.0000 TDB 
   1.167242232386513E+00 -2.656501555106854E+00 -2.997569899663942E-01
   8.960285588863937E-03  3.552110072058888E-03 -1.540772790229827E-03
2458872.500000000 = A.D. 2020-Jan-24 00:00:00.0000 TDB 
   1.211868472762346E+00 -2.638349176553780E+00 -3.074161584772173E-01
   8.889801663637398E-03  3.708595199690973E-03 -1.522826990734064E-03
2458877.500000000 = A.D. 2020-Jan-29 00:00:00.0000 TDB 
   1.256136185276344E+00 -2.619418090316841E+00 -3.149845891229457E-01
   8.816879492718373E-03  3.863588023252346E-03 -1.504478740519887E-03
2458882.500000000 = A.D. 2020-Feb-03 00:00:00.0000 TDB 
   1.300033254482545E+00 -2.599715834253475E+00 -3.224602860884853E-01
   8.741549399561217E-03  4.017058107084535E-03 -1.485734613663504E-03
2458887.500000000 = A.D. 2020-Feb-08 00:00:00.0000 TDB 
   1.343547716702223E+00 -2.579250096923433E+00 -3.298412864083460E-01
   8.663841766255476E-03  4.168975603588510E-03 -1.466601175748480E-03
2458892.500000000 = A.D. 2020-Feb-13 00:00:00.0000 TDB 
   1.386667760297257E+00 -2.558028714683526E+00 -3.371256599215544E-01
   8.583787025688553E-03  4.319311239198265E-03 -1.447084982835786E-03
